      2.10          N: GNSS NAV DATA                        RINEX VERSION / TYPE
fic2rin                                 05/09/2018 00:14:27 PGM / RUN BY / DATE
                                                            END OF HEADER
16 18  5  8  8  0  0.0 2.545770257711e-05-1.136868377216e-12 0.000000000000e+00
    5.700000000000e+01 2.600000000000e+01 3.681224766359e-09-3.119570642616e+00
    1.316890120506e-06 1.004929316696e-02 8.251518011093e-06 5.153630916595e+03
    2.016000000000e+05-2.421438694000e-08 1.893424177974e+00-7.823109626770e-08
    9.870083693632e-01 2.348750000000e+02 5.099646243821e-01-7.588173220730e-09
   -8.393206753608e-11 1.000000000000e+00 2.000000000000e+03 0.000000000000e+00
    2.400000000000e+00 0.000000000000e+00-1.071020960808e-08 5.700000000000e+01
    1.944060000000e+05 4.000000000000e+00
12 18  5  8  8  0  0.0 3.350130282342e-04-2.273736754432e-12 0.000000000000e+00
    9.700000000000e+01 4.459375000000e+01 3.784443351542e-09-1.226979353644e+00
    2.287328243256e-06 7.206710637547e-03 8.538365364075e-06 5.153600299835e+03
    2.016000000000e+05 1.620501279831e-07 1.874520425163e+00 1.136213541031e-07
    9.865752856321e-01 2.278437500000e+02 9.721093562566e-01-7.756037355802e-09
   -1.671498196038e-10 1.000000000000e+00 2.000000000000e+03 0.000000000000e+00
    3.400000000000e+00 0.000000000000e+00-1.257285475731e-08 9.700000000000e+01
    1.944060000000e+05 4.000000000000e+00
31 18  5  8  8  0  0.0 1.231450587511e-04-2.614797267597e-12 0.000000000000e+00
    7.000000000000e+01 1.431250000000e+01 4.575547732786e-09-8.195673171484e-01
    7.245689630508e-07 8.760108612478e-03 6.573274731636e-06 5.153651729584e+03
    2.016000000000e+05 6.705522537231e-08 7.944341475539e-01-1.955777406693e-07
    9.635553977557e-01 2.560625000000e+02-1.309083714420e-01-8.125695610695e-09
   -3.046555472693e-10 1.000000000000e+00 2.000000000000e+03 0.000000000000e+00
    2.400000000000e+00 0.000000000000e+00-1.350417733192e-08 7.000000000000e+01
    1.944060000000e+05 4.000000000000e+00
29 18  5  8  8  0  0.0 4.535824991763e-04-6.366462912410e-12 0.000000000000e+00
    6.600000000000e+01 1.746875000000e+01 3.936592546309e-09-2.971960158870e+00
    9.220093488693e-07 7.440361659974e-04 5.479902029037e-06 5.153701309204e+03
    2.016000000000e+05-5.215406417847e-08 2.919253300743e+00 1.490116119385e-08
    9.841165401983e-01 2.865937500000e+02 1.060523683548e+00-7.918544124861e-09
    2.575107263554e-10 1.000000000000e+00 2.000000000000e+03 0.000000000000e+00
    2.400000000000e+00 0.000000000000e+00-1.024454832077e-08 6.600000000000e+01
    1.944060000000e+05 4.000000000000e+00
28 18  5  8  8  0  0.0 7.133106701076e-04 3.410605131648e-12 0.000000000000e+00
    3.900000000000e+01 4.171875000000e+01 3.602292907102e-09 3.117820745360e+00
    2.194195985794e-06 1.950033148751e-02 7.783994078636e-06 5.153680238724e+03
    2.016000000000e+05 1.918524503708e-07 1.897686759916e+00 1.303851604462e-08
    9.858797909705e-01 2.409375000000e+02-1.521072292801e+00-7.301375560171e-09
   -1.242908915002e-10 1.000000000000e+00 2.000000000000e+03 0.000000000000e+00
    3.400000000000e+00 0.000000000000e+00-1.117587089539e-08 3.900000000000e+01
    1.944060000000e+05 4.000000000000e+00
32 18  5  8  8  0  0.0-5.121608264744e-04 4.661160346586e-12 0.000000000000e+00
    8.700000000000e+01 2.828125000000e+01 4.768412909252e-09 2.964650438528e+00
    1.443549990654e-06 2.068586531095e-03 8.057802915573e-06 5.153660675049e+03
    2.016000000000e+05-6.146728992462e-08-2.905620547102e-01-5.587935447693e-08
    9.574282330946e-01 2.215937500000e+02-2.585882516501e+00-8.023191340981e-09
    6.143113028173e-11 1.000000000000e+00 2.000000000000e+03 0.000000000000e+00
    2.400000000000e+00 0.000000000000e+00 4.656612873077e-10 8.700000000000e+01
    1.944060000000e+05 4.000000000000e+00
27 18  5  8  8  0  0.0 3.694654442370e-04-6.821210263297e-13 0.000000000000e+00
    9.800000000000e+01 2.171875000000e+01 4.065883646088e-09 2.250788328448e+00
    1.117587089539e-06 5.917557282373e-03 5.610287189484e-06 5.153685770035e+03
    2.016000000000e+05-1.285225152969e-07 2.854756579545e+00 4.284083843231e-08
    9.775619196521e-01 2.786250000000e+02 4.094798609598e-01-7.992475775840e-09
    2.182233755938e-10 1.000000000000e+00 2.000000000000e+03 0.000000000000e+00
    2.400000000000e+00 0.000000000000e+00 1.396983861923e-09 9.800000000000e+01
    1.944060000000e+05 4.000000000000e+00
 6 18  5  8  7 59 44.0 4.047136753798e-04-2.273736754432e-12 0.000000000000e+00
    8.000000000000e+00-6.425000000000e+01 4.385539818194e-09 2.306626530539e-01
   -3.395602107048e-06 1.195497345179e-03 5.694106221199e-06 5.153620498657e+03
    2.015840000000e+05-4.284083843231e-08-2.380761535360e+00 2.793967723846e-08
    9.707489755685e-01 2.688437500000e+02-1.103222406030e+00-8.114980878669e-09
    7.536028191537e-11 1.000000000000e+00 2.000000000000e+03 0.000000000000e+00
    2.400000000000e+00 0.000000000000e+00 4.656612873077e-09 8.000000000000e+00
    1.955160000000e+05 4.000000000000e+00
21 18  5  8  7 59 44.0-3.977967426181e-04 4.774847184308e-12 0.000000000000e+00
    4.000000000000e+00-4.984375000000e+01 4.905561479183e-09-1.744700366756e+00
   -1.987442374229e-06 2.443550585303e-02 4.813075065613e-06 5.153713838577e+03
    2.015840000000e+05 3.203749656677e-07-2.426135696553e+00 5.494803190231e-07
    9.436554621006e-01 2.720312500000e+02-1.561613519791e+00-8.218913779320e-09
    1.271481533738e-10 1.000000000000e+00 2.000000000000e+03 0.000000000000e+00
    2.400000000000e+00 0.000000000000e+00-1.024454832077e-08 4.000000000000e+00
    1.964760000000e+05 4.000000000000e+00
26 18  5  8  7 59 44.0-1.564845442772e-04 1.273292582482e-11 0.000000000000e+00
    5.000000000000e+00 2.228125000000e+01 4.411255175056e-09-2.231066497218e+00
    1.218169927597e-06 2.798184752464e-03 7.957220077515e-06 5.153655115128e+03
    2.015840000000e+05-2.793967723846e-08 1.793350810522e+00 5.960464477539e-08
    9.557656471784e-01 2.250937500000e+02 1.196075545690e-01-8.020691236841e-09
   -1.114332130692e-10 1.000000000000e+00 2.000000000000e+03 0.000000000000e+00
    2.400000000000e+00 0.000000000000e+00 7.450580596924e-09 5.000000000000e+00
    1.980360000000e+05 4.000000000000e+00
 4 18  5  8  8  0  0.0 5.914829671383e-05 3.183231456205e-12 0.000000000000e+00
    7.500000000000e+01 2.721875000000e+01 5.069496879179e-09-2.836039198108e+00
    1.465901732445e-06 9.853906463832e-03 8.219853043556e-06 5.153699722290e+03
    2.016000000000e+05 3.539025783539e-08 1.839826396886e+00-4.284083843231e-08
    9.790425565951e-01 2.303437500000e+02 9.211019744516e-01-7.615674366263e-09
   -8.500354073867e-11 1.000000000000e+00 2.000000000000e+03 0.000000000000e+00
    2.400000000000e+00 6.300000000000e+01-1.955777406693e-08 7.500000000000e+01
    1.991760000000e+05 4.000000000000e+00
 6 18  5  8  9 59 44.0 4.046973772347e-04-2.273736754432e-12 0.000000000000e+00
    9.000000000000e+00-5.931250000000e+01 4.277321024732e-09 1.280809127207e+00
   -2.950429916382e-06 1.195098389871e-03 5.798414349556e-06 5.153620056152e+03
    2.087840000000e+05-1.862645149231e-09-2.380819860441e+00-5.029141902924e-08
    9.707499776674e-01 2.706875000000e+02-1.103156150470e+00-8.032477442070e-09
    1.010756387775e-10 1.000000000000e+00 2.000000000000e+03 0.000000000000e+00
    2.400000000000e+00 0.000000000000e+00 4.656612873077e-09 9.000000000000e+00
    2.016060000000e+05 4.000000000000e+00
21 18  5  8  9 59 44.0-3.977618180215e-04 4.774847184308e-12 0.000000000000e+00
    5.000000000000e+00-5.484375000000e+01 5.110570018612e-09-6.945966288291e-01
   -2.723187208176e-06 2.443510189187e-02 5.979090929031e-06 5.153711044312e+03
    2.087840000000e+05-3.017485141754e-07-2.426198574235e+00 2.384185791016e-07
    9.436539757758e-01 2.633125000000e+02-1.561555673085e+00-8.864654962747e-09
    2.282237921513e-10 1.000000000000e+00 2.000000000000e+03 0.000000000000e+00
    2.400000000000e+00 0.000000000000e+00-1.024454832077e-08 5.000000000000e+00
    2.016060000000e+05 4.000000000000e+00
26 18  5  8  9 59 44.0-1.563923433423e-04 1.273292582482e-11 0.000000000000e+00
    7.000000000000e+00 2.487500000000e+01 4.370896351092e-09-1.180354397493e+00
    1.329928636551e-06 2.797834808007e-03 8.502975106239e-06 5.153657924652e+03
    2.087840000000e+05-7.450580596924e-09 1.793293785976e+00-1.061707735062e-07
    9.557643905318e-01 2.144062500000e+02 1.190853074439e-01-8.026405760589e-09
   -2.485817830005e-10 1.000000000000e+00 2.000000000000e+03 0.000000000000e+00
    2.400000000000e+00 0.000000000000e+00 7.450580596924e-09 7.000000000000e+00
    2.016060000000e+05 4.000000000000e+00
 1 18  5  8 10  0  0.0-4.624342545867e-05-2.842170943040e-12 0.000000000000e+00
    5.300000000000e+01-5.128125000000e+01 4.370896351092e-09 1.110844491566e+00
   -2.777203917503e-06 7.702527218498e-03 5.465000867844e-06 5.153671062469e+03
    2.088000000000e+05-4.284083843231e-08-2.372489944918e+00 4.470348358154e-08
    9.710252812949e-01 2.799375000000e+02 6.209661303261e-01-8.153911071697e-09
    5.357366012941e-12 1.000000000000e+00 2.000000000000e+03 0.000000000000e+00
    2.400000000000e+00 0.000000000000e+00 5.587935447693e-09 5.300000000000e+01
    2.016060000000e+05 4.000000000000e+00
 2 18  5  8 10  0  0.0 1.216819509864e-04-1.125499693444e-11 0.000000000000e+00
    4.800000000000e+01-6.053125000000e+01 4.838415825154e-09 1.450998736242e+00
   -3.287568688393e-06 1.788316911552e-02 5.673617124557e-06 5.153731744766e+03
    2.088000000000e+05-3.855675458908e-07-2.433212581779e+00-2.998858690262e-07
    9.501144429145e-01 2.648750000000e+02-1.861179589509e+00-8.450351991079e-09
    8.393206753608e-11 1.000000000000e+00 2.000000000000e+03 0.000000000000e+00
    2.400000000000e+00 0.000000000000e+00-2.048909664154e-08 4.800000000000e+01
    2.016060000000e+05 4.000000000000e+00
